start=new Date('2022-09-14T00:00:00.000Z').valueOf();
sats=[{"EPHEMERIS_TYPE":"0","GP_ID":"212532942","CENTER_NAME":"EARTH","EPOCH":"2022-09-13T19:06:33.749280","MEAN_MOTION_DDOT":"0.0000000000000","TLE_LINE2":"2 45414  53.0547  90.8609 0001336  79.9513 280.1626 15.06393844137990","COUNTRY_CODE":"US","NORAD_CAT_ID":"45414","APOAPSIS":"548.158","MEAN_MOTION_DOT":"0.00000048","TLE_LINE1":"1 45414U 20019BG  22256.79622395  .00000048  00000-0  22135-4 0  9999","SITE":"AFETR","OBJECT_ID":"2020-019BG","RCS_SIZE":"LARGE","MEAN_ELEMENT_THEORY":"SGP4","MEAN_MOTION":"15.06393844","DECAY_DATE":null,"TIME_SYSTEM":"UTC","BSTAR":"0.00002213500000","SEMIMAJOR_AXIS":"6925.367","REF_FRAME":"TEME","OBJECT_NAME":"STARLINK-1309","REV_AT_EPOCH":"13799","ELEMENT_SET_NO":"999","ARG_OF_PERICENTER":"79.9513","ECCENTRICITY":"0.00013360","PERIAPSIS":"546.307","PERIOD":"95.593","OBJECT_TYPE":"PAYLOAD","FILE":"3573088","INCLINATION":"53.0547","LAUNCH_DATE":"2020-03-18","MEAN_ANOMALY":"280.1626","CLASSIFICATION_TYPE":"U","RA_OF_ASC_NODE":"90.8609"},{"FILE":"3573088","OBJECT_TYPE":"PAYLOAD","PERIOD":"95.592","LAUNCH_DATE":"2020-03-18","INCLINATION":"53.0552","CLASSIFICATION_TYPE":"U","MEAN_ANOMALY":"261.0579","RA_OF_ASC_NODE":"90.7531","RCS_SIZE":"LARGE","MEAN_ELEMENT_THEORY":"SGP4","SEMIMAJOR_AXIS":"6925.349","BSTAR":"0.00007610900000","REF_FRAME":"TEME","OBJECT_NAME":"STARLINK-1316","TIME_SYSTEM":"UTC","DECAY_DATE":null,"MEAN_MOTION":"15.06399914","PERIAPSIS":"546.258","ARG_OF_PERICENTER":"99.0566","ELEMENT_SET_NO":"999","ECCENTRICITY":"0.00013800","REV_AT_EPOCH":"13803","COUNTRY_CODE":"US","MEAN_MOTION_DOT":"0.00000852","APOAPSIS":"548.170","NORAD_CAT_ID":"45415","TLE_LINE1":"1 45415U 20019BH  22256.82201405  .00000852  00000-0  76109-4 0  9992","SITE":"AFETR","OBJECT_ID":"2020-019BH","GP_ID":"212531695","EPHEMERIS_TYPE":"0","MEAN_MOTION_DDOT":"0.0000000000000","EPOCH":"2022-09-13T19:43:42.013920","CENTER_NAME":"EARTH","TLE_LINE2":"2 45415  53.0552  90.7531 0001380  99.0566 261.0579 15.06399914138035"},{"CENTER_NAME":"EARTH","MEAN_MOTION_DDOT":"0.0000000000000","EPOCH":"2022-09-13T06:11:37.207392","GP_ID":"212485434","EPHEMERIS_TYPE":"0","TLE_LINE2":"2 45416  53.0548  93.2744 0001556  87.3759 272.7408 15.06401614137933","APOAPSIS":"548.286","MEAN_MOTION_DOT":"0.00002133","NORAD_CAT_ID":"45416","COUNTRY_CODE":"US","OBJECT_ID":"2020-019BJ","SITE":"AFETR","TLE_LINE1":"1 45416U 20019BJ  22256.25806953  .00002133  00000-0  16202-3 0  9990","MEAN_ELEMENT_THEORY":"SGP4","RCS_SIZE":"LARGE","PERIAPSIS":"546.131","REV_AT_EPOCH":"13793","ELEMENT_SET_NO":"999","ECCENTRICITY":"0.00015560","ARG_OF_PERICENTER":"87.3759","DECAY_DATE":null,"TIME_SYSTEM":"UTC","SEMIMAJOR_AXIS":"6925.344","REF_FRAME":"TEME","BSTAR":"0.00016202000000","OBJECT_NAME":"STARLINK-1318","MEAN_MOTION":"15.06401614","LAUNCH_DATE":"2020-03-18","INCLINATION":"53.0548","FILE":"3572069","OBJECT_TYPE":"PAYLOAD","PERIOD":"95.592","RA_OF_ASC_NODE":"93.2744","CLASSIFICATION_TYPE":"U","MEAN_ANOMALY":"272.7408"},{"OBJECT_ID":"2020-019BK","TLE_LINE1":"1 45417U 20019BK  22256.85980097  .00000943  00000-0  82180-4 0  9995","SITE":"AFETR","NORAD_CAT_ID":"45417","MEAN_MOTION_DOT":"0.00000943","APOAPSIS":"547.961","COUNTRY_CODE":"US","TLE_LINE2":"2 45417  53.0557 120.5650 0001060  65.9377 294.1723 15.06395719137871","MEAN_MOTION_DDOT":"0.0000000000000","EPOCH":"2022-09-13T20:38:06.803808","CENTER_NAME":"EARTH","EPHEMERIS_TYPE":"0","GP_ID":"212532696","RA_OF_ASC_NODE":"120.5650","MEAN_ANOMALY":"294.1723","CLASSIFICATION_TYPE":"U","INCLINATION":"53.0557","LAUNCH_DATE":"2020-03-18","PERIOD":"95.592","OBJECT_TYPE":"PAYLOAD","FILE":"3573088","ELEMENT_SET_NO":"999","ARG_OF_PERICENTER":"65.9377","ECCENTRICITY":"0.00010600","REV_AT_EPOCH":"13787","PERIAPSIS":"546.493","MEAN_MOTION":"15.06395719","SEMIMAJOR_AXIS":"6925.362","BSTAR":"0.00008218000000","REF_FRAME":"TEME","OBJECT_NAME":"STARLINK-1286","TIME_SYSTEM":"UTC","DECAY_DATE":null,"MEAN_ELEMENT_THEORY":"SGP4","RCS_SIZE":"LARGE"},{"APOAPSIS":"543.047","MEAN_MOTION_DOT":"0.00019304","NORAD_CAT_ID":"45418","COUNTRY_CODE":"US","OBJECT_ID":"2020-019BL","SITE":"AFETR","TLE_LINE1":"1 45418U 20019BL  22256.10894326  .00019304  00000-0  12546-2 0  9991","CENTER_NAME":"EARTH","EPOCH":"2022-09-13T02:36:52.697664","MEAN_MOTION_DDOT":"0.0000000000000","GP_ID":"212486927","EPHEMERIS_TYPE":"0","TLE_LINE2":"2 45418  52.9983 144.6354 0001217  92.8967 267.2161 15.08035752137168","LAUNCH_DATE":"2020-03-18","INCLINATION":"52.9983","OBJECT_TYPE":"PAYLOAD","FILE":"3572069","PERIOD":"95.488","RA_OF_ASC_NODE":"144.6354","CLASSIFICATION_TYPE":"U","MEAN_ANOMALY":"267.2161","MEAN_ELEMENT_THEORY":"SGP4","RCS_SIZE":"LARGE","PERIAPSIS":"541.363","REV_AT_EPOCH":"13716","ELEMENT_SET_NO":"999","ECCENTRICITY":"0.00012170","ARG_OF_PERICENTER":"92.8967","DECAY_DATE":null,"TIME_SYSTEM":"UTC","REF_FRAME":"TEME","SEMIMAJOR_AXIS":"6920.340","BSTAR":"0.00125460000000","OBJECT_NAME":"STARLINK-1299","MEAN_MOTION":"15.08035752"},{"PERIAPSIS":"546.381","REV_AT_EPOCH":"13763","ELEMENT_SET_NO":"999","ECCENTRICITY":"0.00012420","ARG_OF_PERICENTER":"91.3200","TIME_SYSTEM":"UTC","DECAY_DATE":null,"SEMIMAJOR_AXIS":"6925.376","OBJECT_NAME":"STARLINK-1308","BSTAR":"-0.00000339380000","REF_FRAME":"TEME","MEAN_MOTION":"15.06391140","MEAN_ELEMENT_THEORY":"SGP4","RCS_SIZE":"LARGE","RA_OF_ASC_NODE":"120.3032","CLASSIFICATION_TYPE":"U","MEAN_ANOMALY":"268.7931","LAUNCH_DATE":"2020-03-18","INCLINATION":"53.0555","FILE":"3573088","OBJECT_TYPE":"PAYLOAD","PERIOD":"95.593","TLE_LINE2":"2 45419  53.0555 120.3032 0001242  91.3200 268.7931 15.06391140137639","CENTER_NAME":"EARTH","MEAN_MOTION_DDOT":"0.0000000000000","EPOCH":"2022-09-13T22:08:21.335424","GP_ID":"212532195","EPHEMERIS_TYPE":"0","OBJECT_ID":"2020-019BM","SITE":"AFETR","TLE_LINE1":"1 45419U 20019BM  22256.92246916 -.00000332  00000-0 -33938-5 0  9992","APOAPSIS":"548.101","MEAN_MOTION_DOT":"-0.00000332","NORAD_CAT_ID":"45419","COUNTRY_CODE":"US"},{"FILE":"3573113","OBJECT_TYPE":"PAYLOAD","PERIOD":"95.593","LAUNCH_DATE":"2020-04-22","INCLINATION":"53.0557","CLASSIFICATION_TYPE":"U","MEAN_ANOMALY":"277.3648","RA_OF_ASC_NODE":"60.4379","RCS_SIZE":"LARGE","MEAN_ELEMENT_THEORY":"SGP4","SEMIMAJOR_AXIS":"6925.366","REF_FRAME":"TEME","BSTAR":"0.00000521150000","OBJECT_NAME":"STARLINK-1329","TIME_SYSTEM":"UTC","DECAY_DATE":null,"MEAN_MOTION":"15.06394275","PERIAPSIS":"546.363","ECCENTRICITY":"0.00012530","ELEMENT_SET_NO":"999","ARG_OF_PERICENTER":"82.7483","REV_AT_EPOCH":"13265","COUNTRY_CODE":"US","MEAN_MOTION_DOT":"-0.00000204","APOAPSIS":"548.099","NORAD_CAT_ID":"45531","TLE_LINE1":"1 45531U 20025A   22256.89113094 -.00000204  00000-0  52115-5 0  9995","SITE":"AFETR","OBJECT_ID":"2020-025A","GP_ID":"212539470","EPHEMERIS_TYPE":"0","MEAN_MOTION_DDOT":"0.0000000000000","EPOCH":"2022-09-13T21:23:13.713216","CENTER_NAME":"EARTH","TLE_LINE2":"2 45531  53.0557  60.4379 0001253  82.7483 277.3648 15.06394275132653"},{"MEAN_ELEMENT_THEORY":"SGP4","RCS_SIZE":"LARGE","PERIAPSIS":"546.470","REV_AT_EPOCH":"13266","ELEMENT_SET_NO":"999","ARG_OF_PERICENTER":"88.3952","ECCENTRICITY":"0.00010670","DECAY_DATE":null,"TIME_SYSTEM":"UTC","SEMIMAJOR_AXIS":"6925.344","BSTAR":"0.00000318440000","REF_FRAME":"TEME","OBJECT_NAME":"STARLINK-1338","MEAN_MOTION":"15.06401561","LAUNCH_DATE":"2020-04-22","INCLINATION":"53.0563","FILE":"3573114","OBJECT_TYPE":"PAYLOAD","PERIOD":"95.592","RA_OF_ASC_NODE":"60.6887","CLASSIFICATION_TYPE":"U","MEAN_ANOMALY":"271.7159","CENTER_NAME":"EARTH","MEAN_MOTION_DDOT":"0.0000000000000","EPOCH":"2022-09-13T20:03:36.468000","GP_ID":"212539487","EPHEMERIS_TYPE":"0","TLE_LINE2":"2 45532  53.0563  60.6887 0001067  88.3952 271.7159 15.06401561132666","MEAN_MOTION_DOT":"-0.00000234","APOAPSIS":"547.948","NORAD_CAT_ID":"45532","COUNTRY_CODE":"US","OBJECT_ID":"2020-025B","SITE":"AFETR","TLE_LINE1":"1 45532U 20025B   22256.83583875 -.00000234  00000-0  31844-5 0  9997"},{"TLE_LINE2":"2 45534  53.0556  60.6271 0001359  62.8225 297.2902 15.06391979133246","CENTER_NAME":"EARTH","MEAN_MOTION_DDOT":"0.0000000000000","EPOCH":"2022-09-13T20:19:32.275776","GP_ID":"212532457","EPHEMERIS_TYPE":"0","OBJECT_ID":"2020-025D","SITE":"AFETR","TLE_LINE1":"1 45534U 20025D   22256.84690134  .00002419  00000-0  18129-3 0  9992","MEAN_MOTION_DOT":"0.00002419","APOAPSIS":"548.179","NORAD_CAT_ID":"45534","COUNTRY_CODE":"US","PERIAPSIS":"546.297","REV_AT_EPOCH":"13324","ECCENTRICITY":"0.00013590","ELEMENT_SET_NO":"999","ARG_OF_PERICENTER":"62.8225","DECAY_DATE":null,"TIME_SYSTEM":"UTC","SEMIMAJOR_AXIS":"6925.373","BSTAR":"0.00018129000000","REF_FRAME":"TEME","OBJECT_NAME":"STARLINK-1341","MEAN_MOTION":"15.06391979","MEAN_ELEMENT_THEORY":"SGP4","RCS_SIZE":"LARGE","RA_OF_ASC_NODE":"60.6271","CLASSIFICATION_TYPE":"U","MEAN_ANOMALY":"297.2902","LAUNCH_DATE":"2020-04-22","INCLINATION":"53.0556","FILE":"3573088","OBJECT_TYPE":"PAYLOAD","PERIOD":"95.593"},{"TLE_LINE2":"2 45535  53.0559  60.5449 0001211  77.6712 282.4412 15.06393513133257","GP_ID":"212532708","EPHEMERIS_TYPE":"0","MEAN_MOTION_DDOT":"0.0000000000000","EPOCH":"2022-09-13T20:46:04.681344","CENTER_NAME":"EARTH","TLE_LINE1":"1 45535U 20025E   22256.86533196  .00000198  00000-0  32194-4 0  9990","SITE":"AFETR","OBJECT_ID":"2020-025E","COUNTRY_CODE":"US","MEAN_MOTION_DOT":"0.00000198","APOAPSIS":"548.072","NORAD_CAT_ID":"45535","BSTAR":"0.00003219400000","SEMIMAJOR_AXIS":"6925.368","REF_FRAME":"TEME","OBJECT_NAME":"STARLINK-1350","DECAY_DATE":null,"TIME_SYSTEM":"UTC","MEAN_MOTION":"15.06393513","PERIAPSIS":"546.395","ARG_OF_PERICENTER":"77.6712","ELEMENT_SET_NO":"999","ECCENTRICITY":"0.00012110","REV_AT_EPOCH":"13325","RCS_SIZE":"LARGE","MEAN_ELEMENT_THEORY":"SGP4","CLASSIFICATION_TYPE":"U","MEAN_ANOMALY":"282.4412","RA_OF_ASC_NODE":"60.5449","FILE":"3573088","OBJECT_TYPE":"PAYLOAD","PERIOD":"95.593","LAUNCH_DATE":"2020-04-22","INCLINATION":"53.0559"}];
